[{"OBJECT_NAME":"GJZ 03","OBJECT_ID":"2024-238C","EPOCH":"2026-03-09T22:56:12.125760","MEAN_MOTION":13.75190558,"ECCENTRICITY":0.00119154,"INCLINATION":59.9124,"RA_OF_ASC_NODE":211.3657,"ARG_OF_PERICENTER":255.991,"MEAN_ANOMALY":103.9773,"EPHEMERIS_TYPE":0,"CLASSIFICATION_TYPE":"U","NORAD_CAT_ID":62292,"ELEMENT_SET_NO":999,"REV_AT_EPOCH":6224,"BSTAR":0.00010470992,"MEAN_MOTION_DOT":-1.8e-7,"MEAN_MOTION_DDOT":0},{"OBJECT_NAME":"SL-8 R\/B","OBJECT_ID":"1974-048B","EPOCH":"2026-03-09T20:13:05.540736","MEAN_MOTION":13.78028242,"ECCENTRICITY":0.00169926,"INCLINATION":82.9479,"RA_OF_ASC_NODE":191.7229,"ARG_OF_PERICENTER":20.7882,"MEAN_ANOMALY":92.0187,"EPHEMERIS_TYPE":0,"CLASSIFICATION_TYPE":"U","NORAD_CAT_ID":7350,"ELEMENT_SET_NO":999,"REV_AT_EPOCH":59859,"BSTAR":0.00011071294,"MEAN_MOTION_DOT":1.27e-6,"MEAN_MOTION_DDOT":0}]
